[{"OBJECT_NAME":"SAUDISAT 5B","OBJECT_ID":"2018-102C","EPOCH":"2026-03-09T22:59:17.457216","MEAN_MOTION":15.27248504,"ECCENTRICITY":0.00120577,"INCLINATION":97.3281,"RA_OF_ASC_NODE":135.3629,"ARG_OF_PERICENTER":124.0958,"MEAN_ANOMALY":236.1427,"EPHEMERIS_TYPE":0,"CLASSIFICATION_TYPE":"U","NORAD_CAT_ID":43833,"ELEMENT_SET_NO":999,"REV_AT_EPOCH":40064,"BSTAR":0.00024926623,"MEAN_MOTION_DOT":6.596e-5,"MEAN_MOTION_DDOT":0},{"OBJECT_NAME":"STARLINK-30492","OBJECT_ID":"2023-147J","EPOCH":"2026-03-09T22:00:01.999584","MEAN_MOTION":15.24234925,"ECCENTRICITY":0.00017232,"INCLINATION":43.0012,"RA_OF_ASC_NODE":323.9961,"ARG_OF_PERICENTER":274.4276,"MEAN_ANOMALY":21.8813,"EPHEMERIS_TYPE":0,"CLASSIFICATION_TYPE":"U","NORAD_CAT_ID":57921,"ELEMENT_SET_NO":999,"REV_AT_EPOCH":572,"BSTAR":0.041747131,"MEAN_MOTION_DOT":0.01125465,"MEAN_MOTION_DDOT":0}]
